{
  "type": "FeatureCollection",
  "features": [
    {
      "type": "Feature",
      "geometry": {
        "type": "Point",
        "coordinates": [
          145.0320756,
          -37.9177676
        ]
      },
      "properties": {
        "id": "495271566db5f93b",
        "name": "Bentleigh Produce Store",
        "address": "284 Centre Road VIC",
        "suburb": "",
        "postcode": "",
        "section_id": "south-east",
        "phone": "",
        "website": "https://extrafreshbentleigh.com",
        "category": "greengrocer",
        "notes": "Found via OpenStreetMap Overpass",
        "source": "overpass",
        "priority": "medium",
        "status": "prospect",
        "visit_notes": "",
        "rating": null,
        "place_id": null,
        "updated_at": "2026-09-17T13:42:20.444963+00:00",
        "google_maps_url": "https://www.google.com/maps/search/?api=1&query=Bentleigh+Produce+Store+284+Centre+Road+VIC+Melbourne"
      }
    },
    {
      "type": "Feature",
      "geometry": {
        "type": "Point",
        "coordinates": [
          144.9950114,
          -37.9147016
        ]
      },
      "properties": {
        "id": "dab41c2e8aadee72",
        "name": "Bright 'N' Fresh",
        "address": "VIC",
        "suburb": "",
        "postcode": "",
        "section_id": "south-east",
        "phone": "",
        "website": "",
        "category": "greengrocer",
        "notes": "Found via OpenStreetMap Overpass",
        "source": "overpass",
        "priority": "medium",
        "status": "prospect",
        "visit_notes": "",
        "rating": null,
        "place_id": null,
        "updated_at": "2026-09-17T13:42:18.565643+00:00",
        "google_maps_url": "https://www.google.com/maps/search/?api=1&query=Bright+%27N%27+Fresh+VIC+Melbourne"
      }
    },
    {
      "type": "Feature",
      "geometry": {
        "type": "Point",
        "coordinates": [
          145.0387482,
          -37.9587577
        ]
      },
      "properties": {
        "id": "1adb2bd78df7dc50",
        "name": "COS - Cheltenham Organic Store",
        "address": "360 Reserve Road Cheltenham VIC 3192",
        "suburb": "Cheltenham",
        "postcode": "3192",
        "section_id": "south-east",
        "phone": "",
        "website": "https://cosorganics.com.au/",
        "category": "greengrocer",
        "notes": "Found via OpenStreetMap Overpass",
        "source": "overpass",
        "priority": "medium",
        "status": "prospect",
        "visit_notes": "",
        "rating": null,
        "place_id": null,
        "updated_at": "2026-09-17T13:42:02.209444+00:00",
        "google_maps_url": "https://www.google.com/maps/search/?api=1&query=COS+-+Cheltenham+Organic+Store+360+Reserve+Road+Cheltenham+VIC+3192+Melbourne"
      }
    },
    {
      "type": "Feature",
      "geometry": {
        "type": "Point",
        "coordinates": [
          145.0566713,
          -37.8882648
        ]
      },
      "properties": {
        "id": "df876c4c665c7039",
        "name": "Carnegie Fresh",
        "address": "VIC",
        "suburb": "",
        "postcode": "",
        "section_id": "south-east",
        "phone": "",
        "website": "",
        "category": "greengrocer",
        "notes": "Found via OpenStreetMap Overpass",
        "source": "overpass",
        "priority": "medium",
        "status": "prospect",
        "visit_notes": "",
        "rating": null,
        "place_id": null,
        "updated_at": "2026-09-17T13:41:56.840879+00:00",
        "google_maps_url": "https://www.google.com/maps/search/?api=1&query=Carnegie+Fresh+VIC+Melbourne"
      }
    },
    {
      "type": "Feature",
      "geometry": {
        "type": "Point",
        "coordinates": [
          145.1188532,
          -37.9277077
        ]
      },
      "properties": {
        "id": "58a382fb81a23d4a",
        "name": "Clayton Road Deli",
        "address": "397 Clayton Road VIC",
        "suburb": "",
        "postcode": "",
        "section_id": "south-east",
        "phone": "",
        "website": "",
        "category": "deli",
        "notes": "Found via OpenStreetMap Overpass",
        "source": "overpass",
        "priority": "medium",
        "status": "prospect",
        "visit_notes": "",
        "rating": null,
        "place_id": null,
        "updated_at": "2026-09-17T13:42:23.844817+00:00",
        "google_maps_url": "https://www.google.com/maps/search/?api=1&query=Clayton+Road+Deli+397+Clayton+Road+VIC+Melbourne"
      }
    },
    {
      "type": "Feature",
      "geometry": {
        "type": "Point",
        "coordinates": [
          145.0916227,
          -37.9001483
        ]
      },
      "properties": {
        "id": "364d23f1fb550612",
        "name": "Cosmos Deli",
        "address": "55 Portman Street VIC",
        "suburb": "",
        "postcode": "",
        "section_id": "south-east",
        "phone": "",
        "website": "",
        "category": "deli",
        "notes": "Found via OpenStreetMap Overpass",
        "source": "overpass",
        "priority": "medium",
        "status": "prospect",
        "visit_notes": "",
        "rating": null,
        "place_id": null,
        "updated_at": "2026-09-17T13:42:23.921622+00:00",
        "google_maps_url": "https://www.google.com/maps/search/?api=1&query=Cosmos+Deli+55+Portman+Street+VIC+Melbourne"
      }
    },
    {
      "type": "Feature",
      "geometry": {
        "type": "Point",
        "coordinates": [
          145.1082933,
          -37.9765203
        ]
      },
      "properties": {
        "id": "fb488d67edd72991",
        "name": "Costco",
        "address": "8 Chifley Drive VIC",
        "suburb": "",
        "postcode": "",
        "section_id": "south-east",
        "phone": "+61 3 9552 7700",
        "website": "https://www.costco.com.au",
        "category": "wholesale",
        "notes": "Found via OpenStreetMap Overpass",
        "source": "overpass",
        "priority": "medium",
        "status": "prospect",
        "visit_notes": "",
        "rating": null,
        "place_id": null,
        "updated_at": "2026-09-17T13:42:23.679084+00:00",
        "google_maps_url": "https://www.google.com/maps/search/?api=1&query=Costco+8+Chifley+Drive+VIC+Melbourne"
      }
    },
    {
      "type": "Feature",
      "geometry": {
        "type": "Point",
        "coordinates": [
          145.0871431,
          -38.0069867
        ]
      },
      "properties": {
        "id": "ffe7685902a3a93d",
        "name": "Davine Quality Fruit",
        "address": "507 Main Street Mordialloc VIC 3195",
        "suburb": "Mordialloc",
        "postcode": "3195",
        "section_id": "south-east",
        "phone": "+61 3 9588 2133",
        "website": "",
        "category": "greengrocer",
        "notes": "Found via OpenStreetMap Overpass",
        "source": "overpass",
        "priority": "medium",
        "status": "prospect",
        "visit_notes": "",
        "rating": null,
        "place_id": null,
        "updated_at": "2026-09-17T13:41:53.246410+00:00",
        "google_maps_url": "https://www.google.com/maps/search/?api=1&query=Davine+Quality+Fruit+507+Main+Street+Mordialloc+VIC+3195+Melbourne"
      }
    },
    {
      "type": "Feature",
      "geometry": {
        "type": "Point",
        "coordinates": [
          145.0050605,
          -37.8847181
        ]
      },
      "properties": {
        "id": "93322c474f6e89db",
        "name": "Dirito's Quality Fruits",
        "address": "399 Glen Huntly Road VIC",
        "suburb": "",
        "postcode": "",
        "section_id": "south-east",
        "phone": "",
        "website": "",
        "category": "greengrocer",
        "notes": "Found via OpenStreetMap Overpass",
        "source": "overpass",
        "priority": "medium",
        "status": "prospect",
        "visit_notes": "",
        "rating": null,
        "place_id": null,
        "updated_at": "2026-09-17T13:42:19.846077+00:00",
        "google_maps_url": "https://www.google.com/maps/search/?api=1&query=Dirito%27s+Quality+Fruits+399+Glen+Huntly+Road+VIC+Melbourne"
      }
    },
    {
      "type": "Feature",
      "geometry": {
        "type": "Point",
        "coordinates": [
          145.0412576,
          -37.9185543
        ]
      },
      "properties": {
        "id": "9b93043828dbac11",
        "name": "Fine Gourmet Deli",
        "address": "465 Centre Road Bentleigh VIC 3204",
        "suburb": "Bentleigh",
        "postcode": "3204",
        "section_id": "south-east",
        "phone": "",
        "website": "",
        "category": "deli",
        "notes": "Found via OpenStreetMap Overpass",
        "source": "overpass",
        "priority": "medium",
        "status": "prospect",
        "visit_notes": "",
        "rating": null,
        "place_id": null,
        "updated_at": "2026-09-17T13:42:26.178703+00:00",
        "google_maps_url": "https://www.google.com/maps/search/?api=1&query=Fine+Gourmet+Deli+465+Centre+Road+Bentleigh+VIC+3204+Melbourne"
      }
    },
    {
      "type": "Feature",
      "geometry": {
        "type": "Point",
        "coordinates": [
          145.0914104,
          -37.8987682
        ]
      },
      "properties": {
        "id": "edd3a95df026a1ec",
        "name": "Fruit Barn",
        "address": "VIC",
        "suburb": "",
        "postcode": "",
        "section_id": "south-east",
        "phone": "",
        "website": "",
        "category": "greengrocer",
        "notes": "Found via OpenStreetMap Overpass",
        "source": "overpass",
        "priority": "medium",
        "status": "prospect",
        "visit_notes": "",
        "rating": null,
        "place_id": null,
        "updated_at": "2026-09-17T13:42:01.743092+00:00",
        "google_maps_url": "https://www.google.com/maps/search/?api=1&query=Fruit+Barn+VIC+Melbourne"
      }
    },
    {
      "type": "Feature",
      "geometry": {
        "type": "Point",
        "coordinates": [
          145.1192045,
          -37.926602
        ]
      },
      "properties": {
        "id": "71dcb0718f70cb0e",
        "name": "Fruit Mart",
        "address": "VIC",
        "suburb": "",
        "postcode": "",
        "section_id": "south-east",
        "phone": "",
        "website": "",
        "category": "greengrocer",
        "notes": "Found via OpenStreetMap Overpass",
        "source": "overpass",
        "priority": "medium",
        "status": "prospect",
        "visit_notes": "",
        "rating": null,
        "place_id": null,
        "updated_at": "2026-09-17T13:41:56.733340+00:00",
        "google_maps_url": "https://www.google.com/maps/search/?api=1&query=Fruit+Mart+VIC+Melbourne"
      }
    },
    {
      "type": "Feature",
      "geometry": {
        "type": "Point",
        "coordinates": [
          145.0038265,
          -37.905533
        ]
      },
      "properties": {
        "id": "55267a97d727ed33",
        "name": "Fruit Specialists",
        "address": "VIC",
        "suburb": "",
        "postcode": "",
        "section_id": "south-east",
        "phone": "",
        "website": "",
        "category": "greengrocer",
        "notes": "Found via OpenStreetMap Overpass",
        "source": "overpass",
        "priority": "medium",
        "status": "prospect",
        "visit_notes": "",
        "rating": null,
        "place_id": null,
        "updated_at": "2026-09-17T13:42:05.048670+00:00",
        "google_maps_url": "https://www.google.com/maps/search/?api=1&query=Fruit+Specialists+VIC+Melbourne"
      }
    },
    {
      "type": "Feature",
      "geometry": {
        "type": "Point",
        "coordinates": [
          145.0549022,
          -37.9588236
        ]
      },
      "properties": {
        "id": "26e9af8f074d7fb9",
        "name": "Go Vita",
        "address": "VIC",
        "suburb": "",
        "postcode": "",
        "section_id": "south-east",
        "phone": "+61 3 9583 5306",
        "website": "",
        "category": "health food",
        "notes": "Found via OpenStreetMap Overpass",
        "source": "overpass",
        "priority": "medium",
        "status": "prospect",
        "visit_notes": "",
        "rating": null,
        "place_id": null,
        "updated_at": "2026-09-17T13:42:08.931005+00:00",
        "google_maps_url": "https://www.google.com/maps/search/?api=1&query=Go+Vita+VIC+Melbourne"
      }
    },
    {
      "type": "Feature",
      "geometry": {
        "type": "Point",
        "coordinates": [
          144.9949513,
          -37.8958615
        ]
      },
      "properties": {
        "id": "fecca5e91569dee6",
        "name": "Gum Tree Good Food",
        "address": "422 New Street VIC",
        "suburb": "",
        "postcode": "",
        "section_id": "south-east",
        "phone": "",
        "website": "",
        "category": "health food",
        "notes": "Found via OpenStreetMap Overpass",
        "source": "overpass",
        "priority": "medium",
        "status": "prospect",
        "visit_notes": "",
        "rating": null,
        "place_id": null,
        "updated_at": "2026-09-17T13:42:12.410095+00:00",
        "google_maps_url": "https://www.google.com/maps/search/?api=1&query=Gum+Tree+Good+Food+422+New+Street+VIC+Melbourne"
      }
    },
    {
      "type": "Feature",
      "geometry": {
        "type": "Point",
        "coordinates": [
          145.1152538,
          -37.9282776
        ]
      },
      "properties": {
        "id": "cea7ff7ccd8fdf72",
        "name": "Harry's Factory Outlet",
        "address": "1292 Centre Road VIC",
        "suburb": "",
        "postcode": "",
        "section_id": "south-east",
        "phone": "",
        "website": "",
        "category": "deli",
        "notes": "Found via OpenStreetMap Overpass",
        "source": "overpass",
        "priority": "medium",
        "status": "prospect",
        "visit_notes": "",
        "rating": null,
        "place_id": null,
        "updated_at": "2026-09-17T13:42:16.318711+00:00",
        "google_maps_url": "https://www.google.com/maps/search/?api=1&query=Harry%27s+Factory+Outlet+1292+Centre+Road+VIC+Melbourne"
      }
    },
    {
      "type": "Feature",
      "geometry": {
        "type": "Point",
        "coordinates": [
          145.0037169,
          -37.8972236
        ]
      },
      "properties": {
        "id": "dac18b64aefca917",
        "name": "House of Bread and Pastries",
        "address": "155 Martin Street VIC",
        "suburb": "",
        "postcode": "",
        "section_id": "south-east",
        "phone": "",
        "website": "",
        "category": "deli",
        "notes": "Found via OpenStreetMap Overpass",
        "source": "overpass",
        "priority": "medium",
        "status": "prospect",
        "visit_notes": "",
        "rating": null,
        "place_id": null,
        "updated_at": "2026-09-17T13:42:06.566254+00:00",
        "google_maps_url": "https://www.google.com/maps/search/?api=1&query=House+of+Bread+and+Pastries+155+Martin+Street+VIC+Melbourne"
      }
    },
    {
      "type": "Feature",
      "geometry": {
        "type": "Point",
        "coordinates": [
          145.0909158,
          -37.9708829
        ]
      },
      "properties": {
        "id": "b44b4ee00d48beff",
        "name": "Kingston Food Hangar",
        "address": "288 Centre Dandenong Road VIC",
        "suburb": "",
        "postcode": "",
        "section_id": "south-east",
        "phone": "",
        "website": "https://www.facebook.com/people/Kingston-Food-Hangar/100075981036940/",
        "category": "greengrocer",
        "notes": "Found via OpenStreetMap Overpass",
        "source": "overpass",
        "priority": "medium",
        "status": "prospect",
        "visit_notes": "",
        "rating": null,
        "place_id": null,
        "updated_at": "2026-09-17T13:42:12.185978+00:00",
        "google_maps_url": "https://www.google.com/maps/search/?api=1&query=Kingston+Food+Hangar+288+Centre+Dandenong+Road+VIC+Melbourne"
      }
    },
    {
      "type": "Feature",
      "geometry": {
        "type": "Point",
        "coordinates": [
          145.0647304,
          -37.9835951
        ]
      },
      "properties": {
        "id": "2b87f69ad57ca9c5",
        "name": "Mediterranean Pantry",
        "address": "VIC",
        "suburb": "",
        "postcode": "",
        "section_id": "south-east",
        "phone": "",
        "website": "",
        "category": "deli",
        "notes": "Found via OpenStreetMap Overpass",
        "source": "overpass",
        "priority": "medium",
        "status": "prospect",
        "visit_notes": "",
        "rating": null,
        "place_id": null,
        "updated_at": "2026-09-17T13:41:57.292942+00:00",
        "google_maps_url": "https://www.google.com/maps/search/?api=1&query=Mediterranean+Pantry+VIC+Melbourne"
      }
    },
    {
      "type": "Feature",
      "geometry": {
        "type": "Point",
        "coordinates": [
          145.0335895,
          -37.986258
        ]
      },
      "properties": {
        "id": "f3d5ca48193ef4c3",
        "name": "Merchant",
        "address": "VIC",
        "suburb": "",
        "postcode": "",
        "section_id": "south-east",
        "phone": "",
        "website": "",
        "category": "greengrocer",
        "notes": "Found via OpenStreetMap Overpass",
        "source": "overpass",
        "priority": "medium",
        "status": "prospect",
        "visit_notes": "",
        "rating": null,
        "place_id": null,
        "updated_at": "2026-09-17T13:41:51.835566+00:00",
        "google_maps_url": "https://www.google.com/maps/search/?api=1&query=Merchant+VIC+Melbourne"
      }
    },
    {
      "type": "Feature",
      "geometry": {
        "type": "Point",
        "coordinates": [
          145.0337862,
          -37.9179348
        ]
      },
      "properties": {
        "id": "ef95e13a65a712dc",
        "name": "Milo's deli",
        "address": "328 center rd VIC",
        "suburb": "",
        "postcode": "",
        "section_id": "south-east",
        "phone": "",
        "website": "",
        "category": "deli",
        "notes": "Found via OpenStreetMap Overpass",
        "source": "overpass",
        "priority": "medium",
        "status": "prospect",
        "visit_notes": "",
        "rating": null,
        "place_id": null,
        "updated_at": "2026-09-17T13:42:20.536953+00:00",
        "google_maps_url": "https://www.google.com/maps/search/?api=1&query=Milo%27s+deli+328+center+rd+VIC+Melbourne"
      }
    },
    {
      "type": "Feature",
      "geometry": {
        "type": "Point",
        "coordinates": [
          145.1194456,
          -37.9253486
        ]
      },
      "properties": {
        "id": "4904f3d616d1fbcb",
        "name": "Nutsmart",
        "address": "343 Clayton Road VIC",
        "suburb": "",
        "postcode": "",
        "section_id": "south-east",
        "phone": "",
        "website": "",
        "category": "deli",
        "notes": "Found via OpenStreetMap Overpass",
        "source": "overpass",
        "priority": "medium",
        "status": "prospect",
        "visit_notes": "",
        "rating": null,
        "place_id": null,
        "updated_at": "2026-09-17T13:41:56.793136+00:00",
        "google_maps_url": "https://www.google.com/maps/search/?api=1&query=Nutsmart+343+Clayton+Road+VIC+Melbourne"
      }
    },
    {
      "type": "Feature",
      "geometry": {
        "type": "Point",
        "coordinates": [
          145.0890966,
          -37.8995185
        ]
      },
      "properties": {
        "id": "0dd1dd199cab7026",
        "name": "Oakleigh Fruit Market",
        "address": "VIC",
        "suburb": "",
        "postcode": "",
        "section_id": "south-east",
        "phone": "",
        "website": "",
        "category": "greengrocer",
        "notes": "Found via OpenStreetMap Overpass",
        "source": "overpass",
        "priority": "medium",
        "status": "prospect",
        "visit_notes": "",
        "rating": null,
        "place_id": null,
        "updated_at": "2026-09-17T13:41:52.487675+00:00",
        "google_maps_url": "https://www.google.com/maps/search/?api=1&query=Oakleigh+Fruit+Market+VIC+Melbourne"
      }
    },
    {
      "type": "Feature",
      "geometry": {
        "type": "Point",
        "coordinates": [
          145.0885,
          -37.8995
        ]
      },
      "properties": {
        "id": "261ecce809c46bb9",
        "name": "Oakleigh Greek & specialty food strip",
        "address": "Eaton Mall / Atherton Road, Oakleigh VIC 3166",
        "suburb": "Oakleigh",
        "postcode": "3166",
        "section_id": "south-east",
        "phone": "",
        "website": "",
        "category": "specialty foods strip",
        "notes": "Specialty Mediterranean foods",
        "source": "seed",
        "priority": "medium",
        "status": "prospect",
        "visit_notes": "",
        "rating": null,
        "place_id": null,
        "updated_at": "2026-09-17T13:41:19.378317+00:00",
        "google_maps_url": "https://www.google.com/maps/search/?api=1&query=Oakleigh+Greek+%26+specialty+food+strip+Eaton+Mall+%2F+Atherton+Road%2C+Oakleigh+VIC+3166+Melbourne"
      }
    },
    {
      "type": "Feature",
      "geometry": {
        "type": "Point",
        "coordinates": [
          145.0892318,
          -37.8997248
        ]
      },
      "properties": {
        "id": "9fa4a35f53a7dadd",
        "name": "Oakleigh Market",
        "address": "12 Chester Street VIC",
        "suburb": "",
        "postcode": "",
        "section_id": "south-east",
        "phone": "",
        "website": "",
        "category": "marketplace",
        "notes": "Found via OpenStreetMap Overpass",
        "source": "overpass",
        "priority": "medium",
        "status": "prospect",
        "visit_notes": "",
        "rating": null,
        "place_id": null,
        "updated_at": "2026-09-17T13:42:23.254054+00:00",
        "google_maps_url": "https://www.google.com/maps/search/?api=1&query=Oakleigh+Market+12+Chester+Street+VIC+Melbourne"
      }
    },
    {
      "type": "Feature",
      "geometry": {
        "type": "Point",
        "coordinates": [
          145.0865249,
          -37.9008601
        ]
      },
      "properties": {
        "id": "75735c1be338a773",
        "name": "Oakleigh Produce Store",
        "address": "VIC",
        "suburb": "",
        "postcode": "",
        "section_id": "south-east",
        "phone": "",
        "website": "",
        "category": "greengrocer",
        "notes": "Found via OpenStreetMap Overpass",
        "source": "overpass",
        "priority": "medium",
        "status": "prospect",
        "visit_notes": "",
        "rating": null,
        "place_id": null,
        "updated_at": "2026-09-17T13:41:55.218513+00:00",
        "google_maps_url": "https://www.google.com/maps/search/?api=1&query=Oakleigh+Produce+Store+VIC+Melbourne"
      }
    },
    {
      "type": "Feature",
      "geometry": {
        "type": "Point",
        "coordinates": [
          145.0570333,
          -37.8881617
        ]
      },
      "properties": {
        "id": "87bdebce5fcb58ab",
        "name": "Russian Tidbits",
        "address": "113 Koornang Road VIC",
        "suburb": "",
        "postcode": "",
        "section_id": "south-east",
        "phone": "",
        "website": "",
        "category": "deli",
        "notes": "Found via OpenStreetMap Overpass",
        "source": "overpass",
        "priority": "medium",
        "status": "prospect",
        "visit_notes": "",
        "rating": null,
        "place_id": null,
        "updated_at": "2026-09-17T13:42:24.355520+00:00",
        "google_maps_url": "https://www.google.com/maps/search/?api=1&query=Russian+Tidbits+113+Koornang+Road+VIC+Melbourne"
      }
    },
    {
      "type": "Feature",
      "geometry": {
        "type": "Point",
        "coordinates": [
          145.003592,
          -37.9495805
        ]
      },
      "properties": {
        "id": "49f3ec098446b710",
        "name": "Sandringham Fruit Market",
        "address": "22 Waltham Street Sandringham VIC",
        "suburb": "Sandringham",
        "postcode": "",
        "section_id": "south-east",
        "phone": "+61 3 9598 3340",
        "website": "",
        "category": "greengrocer",
        "notes": "Found via OpenStreetMap Overpass",
        "source": "overpass",
        "priority": "medium",
        "status": "prospect",
        "visit_notes": "",
        "rating": null,
        "place_id": null,
        "updated_at": "2026-09-17T13:41:54.726580+00:00",
        "google_maps_url": "https://www.google.com/maps/search/?api=1&query=Sandringham+Fruit+Market+22+Waltham+Street+Sandringham+VIC+Melbourne"
      }
    },
    {
      "type": "Feature",
      "geometry": {
        "type": "Point",
        "coordinates": [
          145.0678261,
          -37.942006
        ]
      },
      "properties": {
        "id": "b8c8d599676070f7",
        "name": "Schutties Fasteners Pty LTd",
        "address": "10 Bignell Road VIC",
        "suburb": "",
        "postcode": "",
        "section_id": "south-east",
        "phone": "+61 3 9553 2032",
        "website": "https://schuttiesfasteners.com.au/",
        "category": "wholesale",
        "notes": "Found via OpenStreetMap Overpass",
        "source": "overpass",
        "priority": "medium",
        "status": "prospect",
        "visit_notes": "",
        "rating": null,
        "place_id": null,
        "updated_at": "2026-09-17T13:42:08.481741+00:00",
        "google_maps_url": "https://www.google.com/maps/search/?api=1&query=Schutties+Fasteners+Pty+LTd+10+Bignell+Road+VIC+Melbourne"
      }
    },
    {
      "type": "Feature",
      "geometry": {
        "type": "Point",
        "coordinates": [
          145.0641654,
          -37.9814918
        ]
      },
      "properties": {
        "id": "358dd62dd663d36e",
        "name": "Scicluna's",
        "address": "VIC",
        "suburb": "",
        "postcode": "",
        "section_id": "south-east",
        "phone": "",
        "website": "",
        "category": "greengrocer",
        "notes": "Found via OpenStreetMap Overpass",
        "source": "overpass",
        "priority": "medium",
        "status": "prospect",
        "visit_notes": "",
        "rating": null,
        "place_id": null,
        "updated_at": "2026-09-17T13:41:57.404635+00:00",
        "google_maps_url": "https://www.google.com/maps/search/?api=1&query=Scicluna%27s+VIC+Melbourne"
      }
    },
    {
      "type": "Feature",
      "geometry": {
        "type": "Point",
        "coordinates": [
          145.085285,
          -37.9834544
        ]
      },
      "properties": {
        "id": "0006e767a81213dd",
        "name": "Simply Gluten Free",
        "address": "123 Lower Dandenong Road VIC",
        "suburb": "",
        "postcode": "",
        "section_id": "south-east",
        "phone": "",
        "website": "",
        "category": "health food",
        "notes": "Found via OpenStreetMap Overpass",
        "source": "overpass",
        "priority": "medium",
        "status": "prospect",
        "visit_notes": "",
        "rating": null,
        "place_id": null,
        "updated_at": "2026-09-17T13:42:27.527212+00:00",
        "google_maps_url": "https://www.google.com/maps/search/?api=1&query=Simply+Gluten+Free+123+Lower+Dandenong+Road+VIC+Melbourne"
      }
    },
    {
      "type": "Feature",
      "geometry": {
        "type": "Point",
        "coordinates": [
          145.1036976,
          -37.9081726
        ]
      },
      "properties": {
        "id": "17544e76729b4a84",
        "name": "Swedish Prestige",
        "address": "255 Huntingdale Road VIC",
        "suburb": "",
        "postcode": "",
        "section_id": "south-east",
        "phone": "",
        "website": "",
        "category": "wholesale",
        "notes": "Found via OpenStreetMap Overpass",
        "source": "overpass",
        "priority": "medium",
        "status": "prospect",
        "visit_notes": "",
        "rating": null,
        "place_id": null,
        "updated_at": "2026-09-17T13:42:24.393116+00:00",
        "google_maps_url": "https://www.google.com/maps/search/?api=1&query=Swedish+Prestige+255+Huntingdale+Road+VIC+Melbourne"
      }
    },
    {
      "type": "Feature",
      "geometry": {
        "type": "Point",
        "coordinates": [
          145.1036485,
          -37.9083268
        ]
      },
      "properties": {
        "id": "d4a7992d90b8ee33",
        "name": "The Fastener Factory",
        "address": "257 Huntingdale Road VIC",
        "suburb": "",
        "postcode": "",
        "section_id": "south-east",
        "phone": "",
        "website": "",
        "category": "wholesale",
        "notes": "Found via OpenStreetMap Overpass",
        "source": "overpass",
        "priority": "medium",
        "status": "prospect",
        "visit_notes": "",
        "rating": null,
        "place_id": null,
        "updated_at": "2026-09-17T13:42:24.504429+00:00",
        "google_maps_url": "https://www.google.com/maps/search/?api=1&query=The+Fastener+Factory+257+Huntingdale+Road+VIC+Melbourne"
      }
    },
    {
      "type": "Feature",
      "geometry": {
        "type": "Point",
        "coordinates": [
          144.9880413,
          -37.8854858
        ]
      },
      "properties": {
        "id": "f33efe4df67fcc18",
        "name": "The Leaf Store",
        "address": "111 Ormond Road Elwood VIC 3184",
        "suburb": "Elwood",
        "postcode": "3184",
        "section_id": "south-east",
        "phone": "",
        "website": "https://theleafstore.com.au/",
        "category": "organic greengrocer",
        "notes": "Found via OpenStreetMap Overpass",
        "source": "overpass",
        "priority": "medium",
        "status": "prospect",
        "visit_notes": "",
        "rating": null,
        "place_id": null,
        "updated_at": "2026-09-17T13:42:07.997005+00:00",
        "google_maps_url": "https://www.google.com/maps/search/?api=1&query=The+Leaf+Store+111+Ormond+Road+Elwood+VIC+3184+Melbourne"
      }
    },
    {
      "type": "Feature",
      "geometry": {
        "type": "Point",
        "coordinates": [
          145.0228369,
          -37.8868637
        ]
      },
      "properties": {
        "id": "4744084a8247a4cd",
        "name": "The Shook",
        "address": "819 Glen Huntly Road VIC",
        "suburb": "",
        "postcode": "",
        "section_id": "south-east",
        "phone": "",
        "website": "",
        "category": "deli",
        "notes": "Found via OpenStreetMap Overpass",
        "source": "overpass",
        "priority": "medium",
        "status": "prospect",
        "visit_notes": "",
        "rating": null,
        "place_id": null,
        "updated_at": "2026-09-17T13:42:01.980260+00:00",
        "google_maps_url": "https://www.google.com/maps/search/?api=1&query=The+Shook+819+Glen+Huntly+Road+VIC+Melbourne"
      }
    },
    {
      "type": "Feature",
      "geometry": {
        "type": "Point",
        "coordinates": [
          144.9985,
          -37.9075
        ]
      },
      "properties": {
        "id": "44e42cefe8e08c4b",
        "name": "The Source Bulk Foods Brighton",
        "address": "265 Bay Street, Brighton VIC 3186",
        "suburb": "Brighton",
        "postcode": "3186",
        "section_id": "south-east",
        "phone": "",
        "website": "https://www.thesourcebulkfoods.com.au",
        "category": "bulk / wholefoods",
        "notes": "Bayside wholefoods",
        "source": "seed",
        "priority": "medium",
        "status": "prospect",
        "visit_notes": "",
        "rating": null,
        "place_id": null,
        "updated_at": "2026-09-17T13:41:19.131860+00:00",
        "google_maps_url": "https://www.google.com/maps/search/?api=1&query=The+Source+Bulk+Foods+Brighton+265+Bay+Street%2C+Brighton+VIC+3186+Melbourne"
      }
    },
    {
      "type": "Feature",
      "geometry": {
        "type": "Point",
        "coordinates": [
          145.0942006,
          -37.8926895
        ]
      },
      "properties": {
        "id": "8d41ccb95c8fb81c",
        "name": "The WaterStop Shop",
        "address": "20 Dalgety Street Oakleigh VIC 3166",
        "suburb": "Oakleigh",
        "postcode": "3166",
        "section_id": "south-east",
        "phone": "",
        "website": "https://waterstop.com.au/",
        "category": "wholesale",
        "notes": "Found via OpenStreetMap Overpass",
        "source": "overpass",
        "priority": "medium",
        "status": "prospect",
        "visit_notes": "",
        "rating": null,
        "place_id": null,
        "updated_at": "2026-09-17T13:42:09.704115+00:00",
        "google_maps_url": "https://www.google.com/maps/search/?api=1&query=The+WaterStop+Shop+20+Dalgety+Street+Oakleigh+VIC+3166+Melbourne"
      }
    },
    {
      "type": "Feature",
      "geometry": {
        "type": "Point",
        "coordinates": [
          145.0612491,
          -37.9359075
        ]
      },
      "properties": {
        "id": "60ade8101f4d3cc1",
        "name": "Wonder Fresh",
        "address": "293 Chesterville Road VIC 3165",
        "suburb": "",
        "postcode": "3165",
        "section_id": "south-east",
        "phone": "",
        "website": "wonderfresh.com.au",
        "category": "greengrocer",
        "notes": "Found via OpenStreetMap Overpass",
        "source": "overpass",
        "priority": "medium",
        "status": "prospect",
        "visit_notes": "",
        "rating": null,
        "place_id": null,
        "updated_at": "2026-09-17T13:41:51.782165+00:00",
        "google_maps_url": "https://www.google.com/maps/search/?api=1&query=Wonder+Fresh+293+Chesterville+Road+VIC+3165+Melbourne"
      }
    },
    {
      "type": "Feature",
      "geometry": {
        "type": "Point",
        "coordinates": [
          145.0233555,
          -37.8869284
        ]
      },
      "properties": {
        "id": "1bda486c5b815bb9",
        "name": "Yumorganics",
        "address": "VIC",
        "suburb": "",
        "postcode": "",
        "section_id": "south-east",
        "phone": "",
        "website": "",
        "category": "greengrocer",
        "notes": "Found via OpenStreetMap Overpass",
        "source": "overpass",
        "priority": "medium",
        "status": "prospect",
        "visit_notes": "",
        "rating": null,
        "place_id": null,
        "updated_at": "2026-09-17T13:42:02.072031+00:00",
        "google_maps_url": "https://www.google.com/maps/search/?api=1&query=Yumorganics+VIC+Melbourne"
      }
    },
    {
      "type": "Feature",
      "geometry": {
        "type": "Point",
        "coordinates": [
          144.9995,
          -37.9115
        ]
      },
      "properties": {
        "id": "8f726e73815149a4",
        "name": "Brighton / Church Street gourmet strip",
        "address": "Church Street, Brighton VIC 3186",
        "suburb": "Brighton",
        "postcode": "3186",
        "section_id": "south-east",
        "phone": "",
        "website": "",
        "category": "gourmet strip",
        "notes": "Premium bayside independents",
        "source": "seed",
        "priority": "high",
        "status": "prospect",
        "visit_notes": "",
        "rating": null,
        "place_id": null,
        "updated_at": "2026-09-17T13:41:19.982324+00:00",
        "google_maps_url": "https://www.google.com/maps/search/?api=1&query=Brighton+%2F+Church+Street+gourmet+strip+Church+Street%2C+Brighton+VIC+3186+Melbourne"
      }
    },
    {
      "type": "Feature",
      "geometry": {
        "type": "Point",
        "coordinates": [
          145.04,
          -37.92
        ]
      },
      "properties": {
        "id": "472b00fb35840b18",
        "name": "Patterson's Fresh (organics / specialty produce)",
        "address": "Verify current Melbourne locations on Maps",
        "suburb": "Melbourne",
        "postcode": "",
        "section_id": "south-east",
        "phone": "",
        "website": "",
        "category": "organic / specialty produce",
        "notes": "Confirm storefronts during South East Maps sweep",
        "source": "seed",
        "priority": "high",
        "status": "prospect",
        "visit_notes": "",
        "rating": null,
        "place_id": null,
        "updated_at": "2026-09-17T13:41:19.406846+00:00",
        "google_maps_url": "https://www.google.com/maps/search/?api=1&query=Patterson%27s+Fresh+%28organics+%2F+specialty+produce%29+Verify+current+Melbourne+locations+on+Maps+Melbourne"
      }
    },
    {
      "type": "Feature",
      "geometry": {
        "type": "Point",
        "coordinates": [
          145.04,
          -37.92
        ]
      },
      "properties": {
        "id": "f8e5214ccbc68168",
        "name": "Patterson's Organics",
        "address": "Greater Melbourne (verify current store locations)",
        "suburb": "",
        "postcode": "",
        "section_id": "south-east",
        "phone": "",
        "website": "",
        "category": "organic grocery",
        "notes": "Organic retailer — confirm addresses during scan",
        "source": "seed",
        "priority": "high",
        "status": "prospect",
        "visit_notes": "",
        "rating": null,
        "place_id": null,
        "updated_at": "2026-09-17T13:38:26.170440+00:00",
        "google_maps_url": "https://www.google.com/maps/search/?api=1&query=Patterson%27s+Organics+Greater+Melbourne+%28verify+current+store+locations%29+Melbourne"
      }
    }
  ],
  "metadata": {
    "project": "natures-pinch-shop-finder",
    "exported_at": "2026-09-17T13:48:34.048430+00:00",
    "count": 42
  }
}
